start=new Date('2022-12-31T00:00:00.000Z').valueOf();
sats=[{"LAUNCH_DATE":"2022-12-17","NORAD_CAT_ID":"54772","MEAN_MOTION_DDOT":"0.0000000000000","PERIOD":"91.534","APOAPSIS":"350.710","REF_FRAME":"TEME","OBJECT_NAME":"STARLINK-5452","BSTAR":"0.00016653000000","RA_OF_ASC_NODE":"240.8817","DECAY_DATE":null,"FILE":"3727202","ARG_OF_PERICENTER":"87.0479","PERIAPSIS":"348.864","EPHEMERIS_TYPE":"0","CENTER_NAME":"EARTH","OBJECT_TYPE":"PAYLOAD","MEAN_MOTION_DOT":"0.00022805","ELEMENT_SET_NO":"999","MEAN_ANOMALY":"267.6621","REV_AT_EPOCH":"181","OBJECT_ID":"2022-175Q","GP_ID":"221797374","SEMIMAJOR_AXIS":"6727.922","ECCENTRICITY":"0.00013720","MEAN_ELEMENT_THEORY":"SGP4","SITE":"AFETR","TLE_LINE1":"1 54772U 22175Q   22365.00001157  .00022805  00000-0  16653-3 0  9995","COUNTRY_CODE":"US","INCLINATION":"53.2174","TLE_LINE2":"2 54772  53.2174 240.8817 0001372  87.0479 267.6621 15.73190625  1816","CLASSIFICATION_TYPE":"U","RCS_SIZE":null,"EPOCH":"2022-12-31T00:00:00.999648","MEAN_MOTION":"15.73190625","TIME_SYSTEM":"UTC"},{"TIME_SYSTEM":"UTC","MEAN_MOTION":"15.73186930","RCS_SIZE":null,"EPOCH":"2022-12-31T00:00:00.999648","CLASSIFICATION_TYPE":"U","INCLINATION":"53.2173","TLE_LINE2":"2 54773  53.2173 240.8837 0001380  55.2710 298.2500 15.73186930  1812","COUNTRY_CODE":"US","TLE_LINE1":"1 54773U 22175R   22365.00001157  .00026079  00000-0  18976-3 0  9993","SITE":"AFETR","MEAN_ELEMENT_THEORY":"SGP4","SEMIMAJOR_AXIS":"6727.932","ECCENTRICITY":"0.00013800","OBJECT_ID":"2022-175R","GP_ID":"221797383","REV_AT_EPOCH":"181","MEAN_ANOMALY":"298.2500","ELEMENT_SET_NO":"999","OBJECT_TYPE":"PAYLOAD","MEAN_MOTION_DOT":"0.00026079","CENTER_NAME":"EARTH","EPHEMERIS_TYPE":"0","FILE":"3727202","ARG_OF_PERICENTER":"55.2710","PERIAPSIS":"348.869","DECAY_DATE":null,"RA_OF_ASC_NODE":"240.8837","OBJECT_NAME":"STARLINK-5453","BSTAR":"0.00018976000000","REF_FRAME":"TEME","APOAPSIS":"350.726","PERIOD":"91.534","MEAN_MOTION_DDOT":"0.0000000000000","NORAD_CAT_ID":"54773","LAUNCH_DATE":"2022-12-17"},{"MEAN_ANOMALY":"301.1539","REV_AT_EPOCH":"181","ELEMENT_SET_NO":"999","MEAN_ELEMENT_THEORY":"SGP4","SEMIMAJOR_AXIS":"6728.275","ECCENTRICITY":"0.00020230","OBJECT_ID":"2022-175S","GP_ID":"221797341","INCLINATION":"53.2175","TLE_LINE2":"2 54774  53.2175 240.8777 0002023  55.4064 301.1539 15.73066897  1812","COUNTRY_CODE":"US","TLE_LINE1":"1 54774U 22175S   22365.00001157  .00222777  00000-0  15588-2 0  9992","SITE":"AFETR","TIME_SYSTEM":"UTC","MEAN_MOTION":"15.73066897","RCS_SIZE":null,"EPOCH":"2022-12-31T00:00:00.999648","CLASSIFICATION_TYPE":"U","NORAD_CAT_ID":"54774","LAUNCH_DATE":"2022-12-17","REF_FRAME":"TEME","APOAPSIS":"351.501","PERIOD":"91.541","MEAN_MOTION_DDOT":"0.0000000000000","FILE":"3727202","ARG_OF_PERICENTER":"55.4064","PERIAPSIS":"348.779","DECAY_DATE":null,"RA_OF_ASC_NODE":"240.8777","OBJECT_NAME":"STARLINK-5454","BSTAR":"0.00155880000000","OBJECT_TYPE":"PAYLOAD","MEAN_MOTION_DOT":"0.00222777","CENTER_NAME":"EARTH","EPHEMERIS_TYPE":"0"},{"LAUNCH_DATE":"2022-12-17","NORAD_CAT_ID":"54775","PERIOD":"91.531","MEAN_MOTION_DDOT":"0.0000000000000","REF_FRAME":"TEME","APOAPSIS":"350.376","RA_OF_ASC_NODE":"241.2962","OBJECT_NAME":"STARLINK-5465","BSTAR":"0.00018700000000","FILE":"3726871","PERIAPSIS":"348.967","ARG_OF_PERICENTER":"69.1356","DECAY_DATE":null,"EPHEMERIS_TYPE":"0","OBJECT_TYPE":"PAYLOAD","MEAN_MOTION_DOT":"0.00025739","CENTER_NAME":"EARTH","ELEMENT_SET_NO":"999","REV_AT_EPOCH":"179","MEAN_ANOMALY":"174.0437","OBJECT_ID":"2022-175T","GP_ID":"221791690","MEAN_ELEMENT_THEORY":"SGP4","SEMIMAJOR_AXIS":"6727.807","ECCENTRICITY":"0.00010470","COUNTRY_CODE":"US","SITE":"AFETR","TLE_LINE1":"1 54775U 22175T   22364.91667824  .00025739  00000-0  18700-3 0  9990","INCLINATION":"53.2152","TLE_LINE2":"2 54775  53.2152 241.2962 0001047  69.1356 174.0437 15.73231102  1794","RCS_SIZE":null,"EPOCH":"2022-12-30T22:00:00.999936","CLASSIFICATION_TYPE":"U","TIME_SYSTEM":"UTC","MEAN_MOTION":"15.73231102"},{"REF_FRAME":"TEME","APOAPSIS":"350.311","PERIOD":"91.531","MEAN_MOTION_DDOT":"0.0000000000000","NORAD_CAT_ID":"54776","LAUNCH_DATE":"2022-12-17","MEAN_MOTION_DOT":"0.00115960","OBJECT_TYPE":"PAYLOAD","CENTER_NAME":"EARTH","EPHEMERIS_TYPE":"0","ARG_OF_PERICENTER":"46.0419","PERIAPSIS":"349.021","FILE":"3726513","DECAY_DATE":null,"RA_OF_ASC_NODE":"242.9412","BSTAR":"0.00081813000000","OBJECT_NAME":"STARLINK-5470","MEAN_ELEMENT_THEORY":"SGP4","ECCENTRICITY":"0.00009590","SEMIMAJOR_AXIS":"6727.801","GP_ID":"221757299","OBJECT_ID":"2022-175U","REV_AT_EPOCH":"174","MEAN_ANOMALY":"109.7223","ELEMENT_SET_NO":"999","TIME_SYSTEM":"UTC","MEAN_MOTION":"15.73233044","EPOCH":"2022-12-30T14:00:01.000224","RCS_SIZE":null,"CLASSIFICATION_TYPE":"U","TLE_LINE2":"2 54776  53.2151 242.9412 0000959  46.0419 109.7223 15.73233044  1747","INCLINATION":"53.2151","COUNTRY_CODE":"US","TLE_LINE1":"1 54776U 22175U   22364.58334491  .00115960  00000-0  81813-3 0  9996","SITE":"AFETR"},{"TLE_LINE2":"2 54777  53.2151 241.2943 0001311  66.5341 177.2681 15.73248586  1793","INCLINATION":"53.2151","SITE":"AFETR","TLE_LINE1":"1 54777U 22175V   22364.91667824 -.00034928  00000-0 -24496-3 0  9993","COUNTRY_CODE":"US","MEAN_MOTION":"15.73248586","TIME_SYSTEM":"UTC","CLASSIFICATION_TYPE":"U","EPOCH":"2022-12-30T22:00:00.999936","RCS_SIZE":null,"MEAN_ANOMALY":"177.2681","REV_AT_EPOCH":"179","ELEMENT_SET_NO":"999","ECCENTRICITY":"0.00013110","SEMIMAJOR_AXIS":"6727.757","MEAN_ELEMENT_THEORY":"SGP4","GP_ID":"221791691","OBJECT_ID":"2022-175V","DECAY_DATE":null,"ARG_OF_PERICENTER":"66.5341","PERIAPSIS":"348.740","FILE":"3726871","BSTAR":"-0.00024496000000","OBJECT_NAME":"STARLINK-5468","RA_OF_ASC_NODE":"241.2943","CENTER_NAME":"EARTH","MEAN_MOTION_DOT":"-0.00034928","OBJECT_TYPE":"PAYLOAD","EPHEMERIS_TYPE":"0","NORAD_CAT_ID":"54777","LAUNCH_DATE":"2022-12-17","APOAPSIS":"350.504","REF_FRAME":"TEME","MEAN_MOTION_DDOT":"0.0000000000000","PERIOD":"91.530"},{"REF_FRAME":"TEME","APOAPSIS":"350.191","PERIOD":"91.531","MEAN_MOTION_DDOT":"0.0000000000000","NORAD_CAT_ID":"54778","LAUNCH_DATE":"2022-12-17","OBJECT_TYPE":"PAYLOAD","MEAN_MOTION_DOT":"-0.00061951","CENTER_NAME":"EARTH","EPHEMERIS_TYPE":"0","FILE":"3726870","PERIAPSIS":"349.090","ARG_OF_PERICENTER":"48.2971","DECAY_DATE":null,"RA_OF_ASC_NODE":"241.2868","OBJECT_NAME":"STARLINK-5450","BSTAR":"-0.00043947000000","MEAN_ELEMENT_THEORY":"SGP4","SEMIMAJOR_AXIS":"6727.776","ECCENTRICITY":"0.00008180","OBJECT_ID":"2022-175W","GP_ID":"221791781","MEAN_ANOMALY":"197.7330","REV_AT_EPOCH":"179","ELEMENT_SET_NO":"999","TIME_SYSTEM":"UTC","MEAN_MOTION":"15.73241945","RCS_SIZE":null,"EPOCH":"2022-12-30T22:00:00.999936","CLASSIFICATION_TYPE":"U","INCLINATION":"53.2172","TLE_LINE2":"2 54778  53.2172 241.2868 0000818  48.2971 197.7330 15.73241945  1790","COUNTRY_CODE":"US","SITE":"AFETR","TLE_LINE1":"1 54778U 22175W   22364.91667824 -.00061951  00000-0 -43947-3 0  9992"},{"ELEMENT_SET_NO":"999","REV_AT_EPOCH":"179","MEAN_ANOMALY":"199.5051","OBJECT_ID":"2022-175X","GP_ID":"221791258","SEMIMAJOR_AXIS":"6728.842","ECCENTRICITY":"0.00012710","MEAN_ELEMENT_THEORY":"SGP4","TLE_LINE1":"1 54779U 22175X   22364.91667824  .00539812  00000-0  36601-2 0  9995","SITE":"AFETR","COUNTRY_CODE":"US","INCLINATION":"53.2173","TLE_LINE2":"2 54779  53.2173 241.2874 0001271  46.1265 199.5051 15.72867900  1790","CLASSIFICATION_TYPE":"U","RCS_SIZE":null,"EPOCH":"2022-12-30T22:00:00.999936","MEAN_MOTION":"15.72867900","TIME_SYSTEM":"UTC","LAUNCH_DATE":"2022-12-17","NORAD_CAT_ID":"54779","MEAN_MOTION_DDOT":"0.0000000000000","PERIOD":"91.553","APOAPSIS":"351.562","REF_FRAME":"TEME","OBJECT_NAME":"STARLINK-5447","BSTAR":"0.00366010000000","RA_OF_ASC_NODE":"241.2874","DECAY_DATE":null,"FILE":"3726935","ARG_OF_PERICENTER":"46.1265","PERIAPSIS":"349.852","EPHEMERIS_TYPE":"0","CENTER_NAME":"EARTH","OBJECT_TYPE":"PAYLOAD","MEAN_MOTION_DOT":"0.00539812"},{"NORAD_CAT_ID":"54780","LAUNCH_DATE":"2022-12-17","APOAPSIS":"350.422","REF_FRAME":"TEME","MEAN_MOTION_DDOT":"0.0000000000000","PERIOD":"91.531","DECAY_DATE":null,"FILE":"3726872","ARG_OF_PERICENTER":"83.7124","PERIAPSIS":"348.879","OBJECT_NAME":"STARLINK-5449","BSTAR":"0.00010302000000","RA_OF_ASC_NODE":"241.2728","CENTER_NAME":"EARTH","OBJECT_TYPE":"PAYLOAD","MEAN_MOTION_DOT":"0.00013886","EPHEMERIS_TYPE":"0","REV_AT_EPOCH":"179","MEAN_ANOMALY":"170.8041","ELEMENT_SET_NO":"999","SEMIMAJOR_AXIS":"6727.786","ECCENTRICITY":"0.00011470","MEAN_ELEMENT_THEORY":"SGP4","OBJECT_ID":"2022-175Y","GP_ID":"221791298","INCLINATION":"53.2152","TLE_LINE2":"2 54780  53.2152 241.2728 0001147  83.7124 170.8041 15.73238421  1792","SITE":"AFETR","TLE_LINE1":"1 54780U 22175Y   22364.91667824  .00013886  00000-0  10302-3 0  9996","COUNTRY_CODE":"US","MEAN_MOTION":"15.73238421","TIME_SYSTEM":"UTC","CLASSIFICATION_TYPE":"U","RCS_SIZE":null,"EPOCH":"2022-12-30T22:00:00.999936"},{"TIME_SYSTEM":"UTC","MEAN_MOTION":"15.73112324","EPOCH":"2022-12-30T22:00:00.999936","RCS_SIZE":null,"CLASSIFICATION_TYPE":"U","TLE_LINE2":"2 54781  53.2173 241.2851 0001533  53.5050 193.1828 15.73112324  1799","INCLINATION":"53.2173","COUNTRY_CODE":"US","SITE":"AFETR","TLE_LINE1":"1 54781U 22175Z   22364.91667824  .00150080  00000-0  10587-2 0  9999","MEAN_ELEMENT_THEORY":"SGP4","ECCENTRICITY":"0.00015330","SEMIMAJOR_AXIS":"6728.145","GP_ID":"221791287","OBJECT_ID":"2022-175Z","REV_AT_EPOCH":"179","MEAN_ANOMALY":"193.1828","ELEMENT_SET_NO":"999","MEAN_MOTION_DOT":"0.00150080","OBJECT_TYPE":"PAYLOAD","CENTER_NAME":"EARTH","EPHEMERIS_TYPE":"0","PERIAPSIS":"348.979","ARG_OF_PERICENTER":"53.5050","FILE":"3726872","DECAY_DATE":null,"RA_OF_ASC_NODE":"241.2851","BSTAR":"0.00105870000000","OBJECT_NAME":"STARLINK-5443","REF_FRAME":"TEME","APOAPSIS":"351.042","PERIOD":"91.538","MEAN_MOTION_DDOT":"0.0000000000000","NORAD_CAT_ID":"54781","LAUNCH_DATE":"2022-12-17"}];
